[{"OBJECT_NAME":"STARLINK-2065","OBJECT_ID":"2021-012BE","EPOCH":"2026-03-09T06:02:29.895360","MEAN_MOTION":15.6876286,"ECCENTRICITY":0.0006678,"INCLINATION":53.1532,"RA_OF_ASC_NODE":11.1448,"ARG_OF_PERICENTER":48.9965,"MEAN_ANOMALY":311.1629,"EPHEMERIS_TYPE":0,"CLASSIFICATION_TYPE":"U","NORAD_CAT_ID":47672,"ELEMENT_SET_NO":999,"REV_AT_EPOCH":28079,"BSTAR":0.00096339732,"MEAN_MOTION_DOT":0.00113313,"MEAN_MOTION_DDOT":0},{"OBJECT_NAME":"STARLINK-11270 [DTC]","OBJECT_ID":"2024-158K","EPOCH":"2026-03-09T22:39:50.308992","MEAN_MOTION":15.69740364,"ECCENTRICITY":0.00033152,"INCLINATION":53.1579,"RA_OF_ASC_NODE":280.0771,"ARG_OF_PERICENTER":16.2809,"MEAN_ANOMALY":343.8315,"EPHEMERIS_TYPE":0,"CLASSIFICATION_TYPE":"U","NORAD_CAT_ID":60999,"ELEMENT_SET_NO":999,"REV_AT_EPOCH":8762,"BSTAR":0.0020186806,"MEAN_MOTION_DOT":0.0025188,"MEAN_MOTION_DDOT":0}]
